#aV2024 11 19  0  0  0.00000000     288 DD+AD WGS84 FIT  NGA
## 2341 172800.00000000   300.00000000 60633 0.0000000000000
+   31     2  3  4  5  6  7  8  9 10 11 12 13 14 15 16 17 18
+         19 20 21 22 23 24 25 26 27 28 29 30 31 32  0  0  0
+          0  0  0  0  0  0  0  0  0  0  0  0  0  0  0  0  0
+          0  0  0  0  0  0  0  0  0  0  0  0  0  0  0  0  0
+          0  0  0  0  0  0  0  0  0  0  0  0  0  0  0  0  0
++         2  2  2  2  2  2  2  2  2  2  2  2  2  2  2  2  2
++         2  2  2  2  2  2  2  2  2  2  2  2  2  2  0  0  0
++         0  0  0  0  0  0  0  0  0  0  0  0  0  0  0  0  0
++         0  0  0  0  0  0  0  0  0  0  0  0  0  0  0  0  0
++         0  0  0  0  0  0  0  0  0  0  0  0  0  0  0  0  0
%c cc cc ccc ccc cccc cccc cccc cccc ccccc ccccc ccccc ccccc
%c cc cc ccc ccc cccc cccc cccc cccc ccccc ccccc ccccc ccccc
%f  0.0000000  0.000000000  0.00000000000  0.000000000000000
%f  0.0000000  0.000000000  0.00000000000  0.000000000000000
%i    0    0    0    0      0      0      0      0         0
%i    0    0    0    0      0      0      0      0         0
/*      NGA, ST. LOUIS,MO.                                  
/*   EPHEMERIS COMPUTED FROM 2 DAYS OF DATA                 
/*   EPOCHA v9 SMOOTHER                                     
/*   G2296 IERS2010 SATIGS SATAPC                           
*  2024 11 19 13 25  0.00000000
P  2 -13898.231705  10000.922161  20681.800213   -311.052592                    
V  2  -2010.343452 -25227.314187  11457.728732      0.086042                    
P  3 -23123.077912  12880.258635  -1449.304139    603.960191                    
V  3  -2394.482195  -1084.848937  32337.437362      0.099437                    
P  4 -16643.783233   5331.057371 -20030.329304    482.109359                    
V  4 -20342.415861 -15250.513384  12687.569681      0.064318                    
P  5  22796.459260  -2525.991656 -13627.318835   -193.478309                    
V  5 -13771.721448  10054.675158 -25167.534211     -0.011646                    
P  6   5816.938672  23337.340359 -11069.251978   -126.644419                    
V  6  -2646.756299  14026.688170  28105.127340     -0.294273                    
P  7  -6949.001240  23854.166244  -8183.389339    -19.273362                    
V  7  -2889.361094 -11412.260461 -29390.911085      0.020663                    
P  8 -23481.857728  -3718.253600  12168.983950    417.673857                    
V  8 -12190.814502  -9844.659415 -25828.359787      0.100438                    
P  9  -7668.433979  13217.938379 -21815.533419    450.666219                    
V  9 -23554.606255 -14161.647823   -367.056002      0.171056                    
P 10  -2801.643709 -14896.855407  21995.540174   -201.779569                    
V 10  24545.404543 -12101.411983  -5450.105047     -0.145768                    
P 11  12704.273660  12111.172168 -19912.556284   -750.684809                    
V 11  -3396.507741  25132.293918  13031.309692     -0.014345                    
P 12  24818.819154  -9030.699861   2278.895340   -553.093403                    
V 12  -1846.265758   3893.866601  31630.508863     -0.024913                    
P 13  22192.042278  13064.929605   6758.022883    686.663045                    
V 13   5250.176153   7421.783385 -30301.133521      0.015490                    
P 14  -1393.145118  17039.537398  20316.154800    543.064262                    
V 14 -23700.250125  10291.308400 -10510.387141      0.080302                    
P 15  23502.904837    644.957599  11975.711233    229.636435                    
V 15  13492.179878   9138.444019 -25701.894998      0.045381                    
P 16 -20863.461588  -3918.004790 -16584.482311   -124.400583                    
V 16  18139.252951  -9079.130711 -20678.080539      0.097614                    
P 17   7700.389495  19638.838313  16434.805451    552.652838                    
V 17 -17342.335087 -10433.323841  21321.321346     -0.147577                    
P 18   6165.736127 -24817.461084  -6697.585345   -660.473299                    
V 18   1912.214637   8726.721180 -30657.866923     -0.002894                    
P 19  16526.517701  19693.145886   7364.288125    564.558792                    
V 19  -8743.604810  -4157.660119  29734.846651      0.044033                    
P 20  15739.383140   6035.942311 -20410.801046    368.602305                    
V 20 -20045.069651  16826.134075 -10580.915858     -0.003337                    
P 21 -15258.129092   2244.017907  21956.920568     97.079391                    
V 21  -1930.834292 -26968.284202   2513.055783     -0.009406                    
P 22   6453.348909  13999.236945  22018.756748    -80.567467                    
V 22 -24937.359940  10423.607310    997.441797     -0.028242                    
P 23  11570.321626 -18157.840080  15433.399529    366.478099                    
V 23  17945.887688  -8003.708986 -23146.332022      0.079094                    
P 24  14541.071146  -7976.069389  20206.842222   -479.333051                    
V 24   2747.713623  26784.691209   8806.008385      0.023069                    
P 25  17555.146238 -17416.650646  -9675.656204    498.885944                    
V 25  11866.186038  -3072.259803  28342.589487     -0.003006                    
P 26 -12042.290177 -11038.711885 -21158.814051     20.813485                    
V 26  22223.908224 -14512.697335  -4731.304601     -0.131534                    
P 27 -23427.179522 -12738.639301   2330.714500    -34.672306                    
V 27  -1459.954482  -3861.111027 -31265.947768      0.001254                    
P 28  -5871.899017 -24325.494494  -8914.132589   -483.724279                    
V 28   2732.234295 -11260.283034  28978.924380     -0.116352                    
P 29   9351.155525 -11812.104117 -21917.918785   -562.596182                    
V 29  22159.471758  16622.279466    376.668179      0.029632                    
P 30    658.769514  26305.991815   2448.993036   -278.727271                    
V 30  -3955.813549   2799.320787 -31141.364224      0.078566                    
P 31 -11408.973019 -16340.722912 -17615.292585   -221.487653                    
V 31   3424.529888 -21873.710922  18691.960659      0.006629                    
P 32 -11912.671675 -19207.033967  14336.217959   -571.537137                    
V 32  16038.196678   7815.229743  23968.165709      0.054057                    
EOF
